0 ARIANE 42L+3 R/B
1 23687U 95055B   13282.77595794  .00000044  00000-0  75066-3 0  3370
2 23687 004.6153 227.8090 7236788 083.7717 017.7679 02.21455897145188
0 ARIANE 42L+3 R/B
1 23687U 95055B   13283.80997443  .00000055  00000-0  82026-3 0  3389
2 23687 004.6141 227.3786 7236566 084.5852 122.1249 02.21456159145204
0 ARIANE 42L+3 R/B
1 23687U 95055B   13285.99806846  .00000083  00000-0  82450-3 0  3390
2 23687 004.6120 226.4669 7236146 086.3068 066.5607 02.21456709145259
0 ARIANE 42L+3 R/B
1 23687U 95055B   13287.28313757  .00000095  00000-0  76339-3 0  3402
2 23687 004.6110 225.9295 7235923 087.3197 011.0695 02.21457241145280
0 ARIANE 42L+3 R/B
1 23687U 95055B   13288.74688228  .00000073  00000-0  52998-3 0  3414
2 23687 004.6099 225.3175 7235658 088.4729 098.0244 02.21458267145313
0 ARIANE 42L+3 R/B
1 23687U 95055B   13290.41145089  .00000122  00000-0  78709-3 0  3439
2 23687 004.6077 224.6259 7236448 089.7955 345.0922 02.21457625145356
0 ARIANE 42L+3 R/B
1 23687U 95055B   13290.59767874  .00000006  00000-0  16652-3 0  3429
2 23687 004.6088 224.5434 7235327 089.9305 133.5589 02.21459258145351
0 ARIANE 42L+3 R/B
1 23687U 95055B   13292.25096748 -.00000038  00000-0  97665-4 0  3430
2 23687 004.6079 223.8517 7235030 091.2328 011.6399 02.21459639145399
0 ARIANE 42L+3 R/B
1 23687U 95055B   13293.28067469 -.00000061  00000-0  10069-3 0  3441
2 23687 004.6073 223.4212 7234820 092.0432 112.5732 02.21459795145410
0 ARIANE 42L+3 R/B
1 23687U 95055B   13294.64562851 -.00000068  00000-0  20876-3 0  3452
2 23687 004.6066 222.8493 7234581 093.1191 120.7849 02.21459756145444
0 ARIANE 42L+3 R/B
1 23687U 95055B   13295.83879457 -.00000058  00000-0  32326-3 0  3460
2 23687 004.6061 222.3491 7234356 094.0601 352.0401 02.21459587145477
